{"type": "FeatureCollection", "features": [ {"type": "Feature", "properties": {"norad_id": 60989, "name": "SENTINEL-2C", "group": "resource", "lat": -28.971528689316894, "lon": 78.33790572683108, "alt_km": 795.4638632930655, "timestamp": "2025-12-27T06:41:30.556610+00:00", "meta": {"OBJECT_NAME": "SENTINEL-2C", "OBJECT_ID": "2024-157A", "EPOCH": "2025-12-26T22:26:13.261344", "MEAN_MOTION": 14.30818312, "ECCENTRICITY": 0.00013552, "INCLINATION": 98.5665, "RA_OF_ASC_NODE": 73.2118, "ARG_OF_PERICENTER": 102.1348, "MEAN_ANOMALY": 257.9986, "EPHEMERIS_TYPE": 0, "CLASSIFICATION_TYPE": "U", "NORAD_CAT_ID": 60989, "ELEMENT_SET_NO": 999, "REV_AT_EPOCH": 6835, "BSTAR": 8.9389669e-05, "MEAN_MOTION_DOT": 1.91e-06, "MEAN_MOTION_DDOT": 0}, "tle": {"line1": "1 60989U 24157A   25360.93487571  .00000191  00000+0  89390-4 0  9994", "line2": "2 60989  98.5665  73.2118 0001355 102.1348 257.9986 14.30818312 68357"}}, "geometry": {"type": "Point", "coordinates": [78.33790572683108, -28.971528689316894]}}, {"type": "Feature", "properties": {"norad_id": 61735, "name": "IONOSFERA-M 1", "group": "resource", "lat": 5.98191810334523, "lon": 51.93812502207084, "alt_km": 818.4628517528954, "timestamp": "2025-12-27T06:41:30.556620+00:00", "meta": {"OBJECT_NAME": "IONOSFERA-M 1", "OBJECT_ID": "2024-199A", "EPOCH": "2025-12-26T23:07:33.244608", "MEAN_MOTION": 14.22717239, "ECCENTRICITY": 2.537e-05, "INCLINATION": 98.7395, "RA_OF_ASC_NODE": 230.7019, "ARG_OF_PERICENTER": 1.4872, "MEAN_ANOMALY": 358.6306, "EPHEMERIS_TYPE": 0, "CLASSIFICATION_TYPE": "U", "NORAD_CAT_ID": 61735, "ELEMENT_SET_NO": 999, "REV_AT_EPOCH": 10321, "BSTAR": 5.1208453e-05, "MEAN_MOTION_DOT": 7e-07, "MEAN_MOTION_DDOT": 0}, "tle": {"line1": "1 61735U 24199A   25360.96357922  .00000070  00000+0  51208-4 0  9992", "line2": "2 61735  98.7395 230.7019 0000253   1.4872 358.6306 14.22717239103215"}}, "geometry": {"type": "Point", "coordinates": [51.93812502207084, 5.98191810334523]}}, {"type": "Feature", "properties": {"norad_id": 61736, "name": "IONOSFERA-M 2", "group": "resource", "lat": -3.490545317177674, "lon": -128.5355365706484, "alt_km": 819.6408675321818, "timestamp": "2025-12-27T06:41:30.556630+00:00", "meta": {"OBJECT_NAME": "IONOSFERA-M 2", "OBJECT_ID": "2024-199B", "EPOCH": "2025-12-26T22:16:08.627232", "MEAN_MOTION": 14.22719408, "ECCENTRICITY": 0.00018759, "INCLINATION": 98.7394, "RA_OF_ASC_NODE": 230.5788, "ARG_OF_PERICENTER": 92.2504, "MEAN_ANOMALY": 267.8889, "EPHEMERIS_TYPE": 0, "CLASSIFICATION_TYPE": "U", "NORAD_CAT_ID": 61736, "ELEMENT_SET_NO": 999, "REV_AT_EPOCH": 10633, "BSTAR": 5.5038876e-05, "MEAN_MOTION_DOT": 7.9e-07, "MEAN_MOTION_DDOT": 0}, "tle": {"line1": "1 61736U 24199B   25360.92787763  .00000079  00000+0  55039-4 0  9994", "line2": "2 61736  98.7394 230.5788 0001875  92.2504 267.8889 14.22719408106330"}}, "geometry": {"type": "Point", "coordinates": [-128.5355365706484, -3.490545317177674]}}, {"type": "Feature", "properties": {"norad_id": 63772, "name": "BIOMASS", "group": "resource", "lat": 10.489455213142467, "lon": -175.42900824424467, "alt_km": 670.2223019564426, "timestamp": "2025-12-27T06:41:30.556640+00:00", "meta": {"OBJECT_NAME": "BIOMASS", "OBJECT_ID": "2025-090A", "EPOCH": "2025-12-26T12:38:37.094208", "MEAN_MOTION": 14.67541844, "ECCENTRICITY": 0.0001081, "INCLINATION": 98.0698, "RA_OF_ASC_NODE": 185.3355, "ARG_OF_PERICENTER": 85.3818, "MEAN_ANOMALY": 274.751, "EPHEMERIS_TYPE": 0, "CLASSIFICATION_TYPE": "U", "NORAD_CAT_ID": 63772, "ELEMENT_SET_NO": 999, "REV_AT_EPOCH": 3536, "BSTAR": 0.00022694, "MEAN_MOTION_DOT": 1.239e-05, "MEAN_MOTION_DDOT": 0}, "tle": {"line1": "1 63772U 25090A   25360.52681822  .00001239  00000+0  22694-3 0  9991", "line2": "2 63772  98.0698 185.3355 0001081  85.3818 274.7510 14.67541844 35367"}}, "geometry": {"type": "Point", "coordinates": [-175.42900824424467, 10.489455213142467]}}, {"type": "Feature", "properties": {"norad_id": 64694, "name": "GOSAT-GW (IBUKI GW)", "group": "resource", "lat": -41.15017306998782, "lon": 109.43012613899752, "alt_km": 676.1976818519233, "timestamp": "2025-12-27T06:41:30.556651+00:00", "meta": {"OBJECT_NAME": "GOSAT-GW (IBUKI GW)", "OBJECT_ID": "2025-141A", "EPOCH": "2025-12-26T23:08:24.232704", "MEAN_MOTION": 14.67564798, "ECCENTRICITY": 0.00014235, "INCLINATION": 98.0441, "RA_OF_ASC_NODE": 296.2203, "ARG_OF_PERICENTER": 82.099, "MEAN_ANOMALY": 278.0376, "EPHEMERIS_TYPE": 0, "CLASSIFICATION_TYPE": "U", "NORAD_CAT_ID": 64694, "ELEMENT_SET_NO": 999, "REV_AT_EPOCH": 2658, "BSTAR": 0.00022516974, "MEAN_MOTION_DOT": 1.23e-05, "MEAN_MOTION_DDOT": 0}, "tle": {"line1": "1 64694U 25141A   25360.96416936  .00001230  00000+0  22517-3 0  9997", "line2": "2 64694  98.0441 296.2203 0001423  82.0990 278.0376 14.67564798 26580"}}, "geometry": {"type": "Point", "coordinates": [109.43012613899752, -41.15017306998782]}}, {"type": "Feature", "properties": {"norad_id": 64876, "name": "IONOSFERA-M 3", "group": "resource", "lat": -25.796357145325846, "lon": -33.08041154756091, "alt_km": 825.4696667380204, "timestamp": "2025-12-27T06:41:30.556661+00:00", "meta": {"OBJECT_NAME": "IONOSFERA-M 3", "OBJECT_ID": "2025-155A", "EPOCH": "2025-12-27T00:03:24.617664", "MEAN_MOTION": 14.21444603, "ECCENTRICITY": 0.00017685, "INCLINATION": 98.5802, "RA_OF_ASC_NODE": 322.4661, "ARG_OF_PERICENTER": 36.6882, "MEAN_ANOMALY": 323.4416, "EPHEMERIS_TYPE": 0, "CLASSIFICATION_TYPE": "U", "NORAD_CAT_ID": 64876, "ELEMENT_SET_NO": 999, "REV_AT_EPOCH": 2194, "BSTAR": 7.2910475e-05, "MEAN_MOTION_DOT": 1.17e-06, "MEAN_MOTION_DDOT": 0}, "tle": {"line1": "1 64876U 25155A   25361.00236826  .00000117  00000+0  72910-4 0  9994", "line2": "2 64876  98.5802 322.4661 0001768  36.6882 323.4416 14.21444603 21942"}}, "geometry": {"type": "Point", "coordinates": [-33.08041154756091, -25.796357145325846]}}, {"type": "Feature", "properties": {"norad_id": 64877, "name": "IONOSFERA-M 4", "group": "resource", "lat": 24.849080081260247, "lon": 146.663483514401, "alt_km": 819.9335569718942, "timestamp": "2025-12-27T06:41:30.556672+00:00", "meta": {"OBJECT_NAME": "IONOSFERA-M 4", "OBJECT_ID": "2025-155B", "EPOCH": "2025-12-26T23:12:31.632192", "MEAN_MOTION": 14.21445772, "ECCENTRICITY": 0.00012256, "INCLINATION": 98.5803, "RA_OF_ASC_NODE": 322.3511, "ARG_OF_PERICENTER": 50.605, "MEAN_ANOMALY": 309.5237, "EPHEMERIS_TYPE": 0, "CLASSIFICATION_TYPE": "U", "NORAD_CAT_ID": 64877, "ELEMENT_SET_NO": 999, "REV_AT_EPOCH": 2193, "BSTAR": 7.316352e-05, "MEAN_MOTION_DOT": 1.17e-06, "MEAN_MOTION_DDOT": 0}, "tle": {"line1": "1 64877U 25155B   25360.96703278  .00000117  00000+0  73164-4 0  9991", "line2": "2 64877  98.5803 322.3511 0001225  50.6050 309.5237 14.21445772 21931"}}, "geometry": {"type": "Point", "coordinates": [146.663483514401, 24.849080081260247]}}, {"type": "Feature", "properties": {"norad_id": 64899, "name": "MICROCARB", "group": "resource", "lat": 72.7007556483248, "lon": 49.5438450968027, "alt_km": 636.3251482305068, "timestamp": "2025-12-27T06:41:30.556682+00:00", "meta": {"OBJECT_NAME": "MICROCARB", "OBJECT_ID": "2025-156A", "EPOCH": "2025-12-26T22:11:52.679328", "MEAN_MOTION": 14.72080413, "ECCENTRICITY": 0.00176706, "INCLINATION": 98.0009, "RA_OF_ASC_NODE": 76.042, "ARG_OF_PERICENTER": 102.3333, "MEAN_ANOMALY": 257.9854, "EPHEMERIS_TYPE": 0, "CLASSIFICATION_TYPE": "U", "NORAD_CAT_ID": 64899, "ELEMENT_SET_NO": 999, "REV_AT_EPOCH": 2262, "BSTAR": 0.00014636085, "MEAN_MOTION_DOT": 8.73e-06, "MEAN_MOTION_DDOT": 0}, "tle": {"line1": "1 64899U 25156A   25360.92491527  .00000873  00000+0  14636-3 0  9990", "line2": "2 64899  98.0009  76.0420 0017670 102.3333 257.9854 14.72080413 22621"}}, "geometry": {"type": "Point", "coordinates": [49.5438450968027, 72.7007556483248]}}, {"type": "Feature", "properties": {"norad_id": 64900, "name": "CO3D 3", "group": "resource", "lat": 67.52085785194019, "lon": -84.16685300312348, "alt_km": 498.0266052618417, "timestamp": "2025-12-27T06:41:30.556692+00:00", "meta": {"OBJECT_NAME": "CO3D 3", "OBJECT_ID": "2025-156B", "EPOCH": "2025-12-26T23:53:07.493568", "MEAN_MOTION": 15.20210664, "ECCENTRICITY": 0.0001293, "INCLINATION": 97.4345, "RA_OF_ASC_NODE": 77.1581, "ARG_OF_PERICENTER": 66.9579, "MEAN_ANOMALY": 293.1793, "EPHEMERIS_TYPE": 0, "CLASSIFICATION_TYPE": "U", "NORAD_CAT_ID": 64900, "ELEMENT_SET_NO": 999, "REV_AT_EPOCH": 2337, "BSTAR": 2.1573252e-05, "MEAN_MOTION_DOT": 4e-06, "MEAN_MOTION_DDOT": 0}, "tle": {"line1": "1 64900U 25156B   25360.99522562  .00000400  00000+0  21573-4 0  9999", "line2": "2 64900  97.4345  77.1581 0001293  66.9579 293.1793 15.20210664 23375"}}, "geometry": {"type": "Point", "coordinates": [-84.16685300312348, 67.52085785194019]}}, {"type": "Feature", "properties": {"norad_id": 64901, "name": "CO3D 4", "group": "resource", "lat": 68.3701949034363, "lon": -83.33793190668145, "alt_km": 497.78519814733954, "timestamp": "2025-12-27T06:41:30.556703+00:00", "meta": {"OBJECT_NAME": "CO3D 4", "OBJECT_ID": "2025-156C", "EPOCH": "2025-12-26T22:18:34.216416", "MEAN_MOTION": 15.20203934, "ECCENTRICITY": 0.00014365, "INCLINATION": 97.4337, "RA_OF_ASC_NODE": 77.0932, "ARG_OF_PERICENTER": 147.4182, "MEAN_ANOMALY": 212.7142, "EPHEMERIS_TYPE": 0, "CLASSIFICATION_TYPE": "U", "NORAD_CAT_ID": 64901, "ELEMENT_SET_NO": 999, "REV_AT_EPOCH": 2336, "BSTAR": 0.00029519926, "MEAN_MOTION_DOT": 6.329e-05, "MEAN_MOTION_DDOT": 0}, "tle": {"line1": "1 64901U 25156C   25360.92956269  .00006329  00000+0  29520-3 0  9993", "line2": "2 64901  97.4337  77.0932 0001436 147.4182 212.7142 15.20203934 23366"}}, "geometry": {"type": "Point", "coordinates": [-83.33793190668145, 68.3701949034363]}}]}